sat02381
1 02381U 63014AB  20046.21266558 -.00000953  00000-0 -25419+0 0  9994
2 02381  87.0572 333.1613 1025638 194.2193 162.7634  8.69178461723583
